1 41774U 16058E   22096.71796652  .00016640  00000+0  38764-3 0  9992
2 41774  97.1261 164.3013 0001664 110.1919 249.9508 15.42333449309937